GLOBALSTAR M094         
1 39074U 13005C   26032.88974344 -.00000112  00000+0 -43935-4 0  9995
2 39074  51.9933 202.7408 0001202  85.2413 274.8591 12.62266829601384
GLOBALSTAR M096         
1 39075U 13005D   26032.90278429 -.00000078  00000+0  14214-3 0  9997
2 39075  52.0054 251.3962 0001116  70.3846 289.7141 12.62262896600302
GLOBALSTAR M078         
1 39076U 13005E   26032.79732686 -.00000010  00000+0  52511-3 0  9993
2 39076  51.9900 335.9143 0000942   0.4505 359.6362 12.62276340598917
GLOBALSTAR M095         
1 39077U 13005F   26032.50709065 -.00000096  00000+0  42033-4 0  9991
2 39077  52.0108 334.2102 0000867  37.2539 322.8388 12.62268025598739
GLOBALSTAR M087         
1 52888U 22064A   26032.59949598 -.00000095  00000+0  51096-4 0  9995
2 52888  51.9993 115.2443 0000766  97.7755 262.3198 12.62262686174013
