[{"OBJECT_NAME":"GLOBALSTAR M094","OBJECT_ID":"2013-005C","EPOCH":"2026-02-01T21:21:13.833216","MEAN_MOTION":12.62266829,"ECCENTRICITY":0.00012029,"INCLINATION":51.9933,"RA_OF_ASC_NODE":202.7408,"ARG_OF_PERICENTER":85.2413,"MEAN_ANOMALY":274.8591,"EPHEMERIS_TYPE":0,"CLASSIFICATION_TYPE":"U","NORAD_CAT_ID":39074,"ELEMENT_SET_NO":999,"REV_AT_EPOCH":60138,"BSTAR":-4.3935499e-5,"MEAN_MOTION_DOT":-1.12e-6,"MEAN_MOTION_DDOT":0},{"OBJECT_NAME":"GLOBALSTAR M096","OBJECT_ID":"2013-005D","EPOCH":"2026-02-01T21:40:00.562656","MEAN_MOTION":12.62262896,"ECCENTRICITY":0.00011169,"INCLINATION":52.0054,"RA_OF_ASC_NODE":251.3962,"ARG_OF_PERICENTER":70.3846,"MEAN_ANOMALY":289.7141,"EPHEMERIS_TYPE":0,"CLASSIFICATION_TYPE":"U","NORAD_CAT_ID":39075,"ELEMENT_SET_NO":999,"REV_AT_EPOCH":60030,"BSTAR":0.00014213699,"MEAN_MOTION_DOT":-7.8e-7,"MEAN_MOTION_DDOT":0},{"OBJECT_NAME":"GLOBALSTAR M078","OBJECT_ID":"2013-005E","EPOCH":"2026-02-01T19:08:09.040704","MEAN_MOTION":12.6227634,"ECCENTRICITY":9.427e-5,"INCLINATION":51.99,"RA_OF_ASC_NODE":335.9143,"ARG_OF_PERICENTER":0.4505,"MEAN_ANOMALY":359.6362,"EPHEMERIS_TYPE":0,"CLASSIFICATION_TYPE":"U","NORAD_CAT_ID":39076,"ELEMENT_SET_NO":999,"REV_AT_EPOCH":59891,"BSTAR":0.00052510953,"MEAN_MOTION_DOT":-1.0e-7,"MEAN_MOTION_DDOT":0},{"OBJECT_NAME":"GLOBALSTAR M095","OBJECT_ID":"2013-005F","EPOCH":"2026-02-01T12:10:12.632160","MEAN_MOTION":12.62268025,"ECCENTRICITY":8.67e-5,"INCLINATION":52.0108,"RA_OF_ASC_NODE":334.2102,"ARG_OF_PERICENTER":37.2539,"MEAN_ANOMALY":322.8388,"EPHEMERIS_TYPE":0,"CLASSIFICATION_TYPE":"U","NORAD_CAT_ID":39077,"ELEMENT_SET_NO":999,"REV_AT_EPOCH":59873,"BSTAR":4.2032691e-5,"MEAN_MOTION_DOT":-9.6e-7,"MEAN_MOTION_DDOT":0},{"OBJECT_NAME":"GLOBALSTAR M087","OBJECT_ID":"2022-064A","EPOCH":"2026-02-01T14:23:16.452672","MEAN_MOTION":12.62262686,"ECCENTRICITY":7.667e-5,"INCLINATION":51.9993,"RA_OF_ASC_NODE":115.2443,"ARG_OF_PERICENTER":97.7755,"MEAN_ANOMALY":262.3198,"EPHEMERIS_TYPE":0,"CLASSIFICATION_TYPE":"U","NORAD_CAT_ID":52888,"ELEMENT_SET_NO":999,"REV_AT_EPOCH":17401,"BSTAR":5.1095695e-5,"MEAN_MOTION_DOT":-9.5e-7,"MEAN_MOTION_DDOT":0}]
